[{"OBJECT_NAME":"HINODE (SOLAR-B)","OBJECT_ID":"2006-041A","EPOCH":"2026-03-09T23:31:46.832160","MEAN_MOTION":14.68474529,"ECCENTRICITY":0.00163234,"INCLINATION":98.0624,"RA_OF_ASC_NODE":86.5729,"ARG_OF_PERICENTER":240.6819,"MEAN_ANOMALY":119.2756,"EPHEMERIS_TYPE":0,"CLASSIFICATION_TYPE":"U","NORAD_CAT_ID":29479,"ELEMENT_SET_NO":999,"REV_AT_EPOCH":4031,"BSTAR":0.00015629545,"MEAN_MOTION_DOT":8.58e-6,"MEAN_MOTION_DDOT":0},{"OBJECT_NAME":"FENGYUN 1C DEB","OBJECT_ID":"1999-025BC","EPOCH":"2026-03-09T22:05:00.497760","MEAN_MOTION":14.22725475,"ECCENTRICITY":0.02051504,"INCLINATION":98.5908,"RA_OF_ASC_NODE":54.5449,"ARG_OF_PERICENTER":81.9756,"MEAN_ANOMALY":312.6434,"EPHEMERIS_TYPE":0,"CLASSIFICATION_TYPE":"U","NORAD_CAT_ID":29762,"ELEMENT_SET_NO":999,"REV_AT_EPOCH":99188,"BSTAR":0.00033531592,"MEAN_MOTION_DOT":8.88e-6,"MEAN_MOTION_DDOT":0}]
